{
    "satellites": [
        {
            "name": "starlink341",
            "title": "Starlink-341 (G6-96)",
            "tle": [
                "1 67362C 26003AE  26020.89770833 -.02006300  00000+0 -10113-1 0   204",
                "2 67362  42.9985 142.8869 0001107 282.9290 200.6183 15.82678108    19"
            ],
            "stdMag": 5,
            "noradId": "67362",
            "tleUrl": "http://celestrak.org/NORAD/elements/supplemental/sup-gp.php?FILE=starlink&FORMAT=tle",
            "launchDate": "2026-01-09T21:41:00.000Z",
            "active": true,
            "batch": [
                {
                    "noradId": "67362",
                    "tle": [
                        "1 67362C 26003AE  26020.89770833 -.02006300  00000+0 -10113-1 0   204",
                        "2 67362  42.9985 142.8869 0001107 282.9290 200.6183 15.82678108    19"
                    ]
                },
                {
                    "noradId": "67360",
                    "tle": [
                        "1 67360C 26003AC  26020.89215278 -.01986800  00000+0 -99695-2 0   203",
                        "2 67360  42.9986 142.9330 0001281 283.4396 163.9234 15.82755969    17"
                    ]
                },
                {
                    "noradId": "67361",
                    "tle": [
                        "1 67361C 26003AD  26020.44493056 -.01880400  00000+0 -87079-2 0   209",
                        "2 67361  42.9982 145.6739 0001369 286.4435 130.4976 15.84367607    13"
                    ]
                },
                {
                    "noradId": "67358",
                    "tle": [
                        "1 67358C 26003AA  26020.89006944 -.01960000  00000+0 -97908-2 0   207",
                        "2 67358  42.9987 142.9575 0001237 283.7563 147.0925 15.82825427    13"
                    ]
                },
                {
                    "noradId": "67359",
                    "tle": [
                        "1 67359C 26003AB  26020.89284722 -.01970500  00000+0 -98595-2 0   209",
                        "2 67359  42.9987 142.9350 0001265 282.6999 166.1503 15.82801150    18"
                    ]
                },
                {
                    "noradId": "67357",
                    "tle": [
                        "1 67357C 26003Z   26020.89493056 -.01940300  00000+0 -96710-2 0   201",
                        "2 67357  42.9986 142.9342 0001229 285.0150 171.0541 15.82852930    11"
                    ]
                },
                {
                    "noradId": "67356",
                    "tle": [
                        "1 67356C 26003Y   26020.89145833 -.01903900  00000+0 -94584-2 0   209",
                        "2 67356  42.9988 142.9671 0001314 285.0517 146.7767 15.82886948    14"
                    ]
                },
                {
                    "noradId": "67354",
                    "tle": [
                        "1 67354C 26003W   26020.89076389 -.01919500  00000+0 -95394-2 0   209",
                        "2 67354  42.9987 142.9660 0001221 282.3696 147.5659 15.82894972    19"
                    ]
                },
                {
                    "noradId": "67355",
                    "tle": [
                        "1 67355C 26003X   26020.89354167 -.01885300  00000+0 -93612-2 0   204",
                        "2 67355  42.9986 142.9599 0001279 283.2010 158.3760 15.82879067    14"
                    ]
                },
                {
                    "noradId": "67353",
                    "tle": [
                        "1 67353C 26003V   26020.89215278 -.01855500  00000+0 -91851-2 0   203",
                        "2 67353  42.9984 142.9748 0001144 283.5054 147.6266 15.82914537    12"
                    ]
                },
                {
                    "noradId": "67352",
                    "tle": [
                        "1 67352C 26003U   26020.89215278 -.01826900  00000+0 -90257-2 0   203",
                        "2 67352  42.9987 142.9805 0001296 283.8543 144.9113 15.82926298    10"
                    ]
                },
                {
                    "noradId": "67351",
                    "tle": [
                        "1 67351C 26003T   26020.89215278 -.01808800  00000+0 -89318-2 0   207",
                        "2 67351  42.9986 142.9858 0001354 285.1324 141.5364 15.82918529    12"
                    ]
                },
                {
                    "noradId": "67350",
                    "tle": [
                        "1 67350C 26003S   26020.89701389 -.01793600  00000+0 -88626-2 0   201",
                        "2 67350  42.9986 142.9610 0001261 285.3031 167.0622 15.82889029    13"
                    ]
                },
                {
                    "noradId": "67349",
                    "tle": [
                        "1 67349C 26003R   26020.89701389 -.01766400  00000+0 -87085-2 0   205",
                        "2 67349  42.9987 142.9676 0001286 282.0177 167.8657 15.82910507    18"
                    ]
                },
                {
                    "noradId": "67348",
                    "tle": [
                        "1 67348C 26003Q   26020.89770833 -.01728100  00000+0 -84947-2 0   203",
                        "2 67348  42.9986 142.9755 0001310 283.8158 165.3271 15.82934541    19"
                    ]
                },
                {
                    "noradId": "67347",
                    "tle": [
                        "1 67347C 26003P   26020.89701389 -.01740000  00000+0 -85565-2 0   202",
                        "2 67347  42.9986 142.9739 0001333 284.2099 163.1091 15.82938066    16"
                    ]
                },
                {
                    "noradId": "67346",
                    "tle": [
                        "1 67346C 26003N   26020.88868056 -.01709100  00000+0 -83707-2 0   207",
                        "2 67346  42.9986 143.0366 0001477 280.0755 115.0515 15.82992602    18"
                    ]
                },
                {
                    "noradId": "67345",
                    "tle": [
                        "1 67345C 26003M   26020.89909722 -.01704200  00000+0 -83572-2 0   209",
                        "2 67345  42.9985 142.9784 0001287 283.1402 169.2906 15.82961105    19"
                    ]
                },
                {
                    "noradId": "67344",
                    "tle": [
                        "1 67344C 26003L   26020.89701389 -.01690400  00000+0 -82730-2 0   208",
                        "2 67344  42.9982 142.9970 0001317 283.5680 154.5416 15.82990731    18"
                    ]
                },
                {
                    "noradId": "67343",
                    "tle": [
                        "1 67343C 26003K   26020.89631944 -.01677700  00000+0 -81922-2 0   206",
                        "2 67343  42.9984 143.0082 0001289 282.3517 149.2656 15.83025779    18"
                    ]
                },
                {
                    "noradId": "67342",
                    "tle": [
                        "1 67342C 26003J   26020.89076389 -.01670500  00000+0 -81490-2 0   202",
                        "2 67342  42.9983 143.0473 0001524 282.4594 115.4108 15.83039489    18"
                    ]
                },
                {
                    "noradId": "67341",
                    "tle": [
                        "1 67341C 26003H   26020.89006944 -.01659400  00000+0 -80840-2 0   205",
                        "2 67341  42.9985 143.0571 0001429 280.8703 110.7131 15.83057011    11"
                    ]
                },
                {
                    "noradId": "67340",
                    "tle": [
                        "1 67340C 26003G   26020.88937500 -.01648500  00000+0 -80145-2 0   201",
                        "2 67340  42.9983 143.0681 0001380 278.8829 106.2425 15.83090237    15"
                    ]
                },
                {
                    "noradId": "67339",
                    "tle": [
                        "1 67339C 26003F   26020.89701389 -.01637000  00000+0 -79501-2 0   201",
                        "2 67339  42.9984 143.0273 0001353 282.0111 144.1352 15.83101503    11"
                    ]
                },
                {
                    "noradId": "67338",
                    "tle": [
                        "1 67338C 26003E   26020.88937500 -.01627600  00000+0 -78886-2 0   205",
                        "2 67338  42.9984 143.0803 0001343 278.7286 101.5878 15.83135231    18"
                    ]
                },
                {
                    "noradId": "67337",
                    "tle": [
                        "1 67337C 26003D   26020.89145833 -.01621200  00000+0 -78548-2 0   200",
                        "2 67337  42.9985 143.0728 0001348 279.7305 110.2881 15.83135570    19"
                    ]
                },
                {
                    "noradId": "67336",
                    "tle": [
                        "1 67336C 26003C   26020.89076389 -.01612900  00000+0 -78048-2 0   200",
                        "2 67336  42.9984 143.0832 0001365 278.0393 105.7005 15.83154575    14"
                    ]
                },
                {
                    "noradId": "67335",
                    "tle": [
                        "1 67335C 26003B   26020.89076389 -.01603300  00000+0 -77490-2 0   203",
                        "2 67335  42.9983 143.0889 0001415 277.8037 103.6202 15.83169641    18"
                    ]
                },
                {
                    "noradId": "67334",
                    "tle": [
                        "1 67334C 26003A   26020.44493056 -.01553200  00000+0 -70452-2 0   201",
                        "2 67334  42.9983 145.8325 0001000 269.9685  84.5828 15.84474167    17"
                    ]
                }
            ]
        }
    ],
    "config": {}
}